start=new Date('2023-03-09T00:00:00.000Z').valueOf();
sats=[{"OBJECT_TYPE":"PAYLOAD","NORAD_CAT_ID":"48578","MEAN_ELEMENT_THEORY":"SGP4","EPOCH":"2023-03-08T20:13:33.150720","INCLINATION":"53.0539","TLE_LINE1":"1 48578U 21041AB  23067.84274480  .00042845  00000-0  28754-2 0  9996","REV_AT_EPOCH":"9987","CLASSIFICATION_TYPE":"U","ECCENTRICITY":"0.00014790","ARG_OF_PERICENTER":"101.5412","ELEMENT_SET_NO":"999","TIME_SYSTEM":"UTC","RCS_SIZE":"LARGE","OBJECT_NAME":"STARLINK-2232","MEAN_MOTION_DOT":"0.00042845","MEAN_ANOMALY":"258.5743","MEAN_MOTION":"15.06431109","EPHEMERIS_TYPE":"0","REF_FRAME":"TEME","COUNTRY_CODE":"US","OBJECT_ID":"2021-041AB","CENTER_NAME":"EARTH","TLE_LINE2":"2 48578  53.0539  16.0718 0001479 101.5412 258.5743 15.06431109 99874","GP_ID":"227720248","RA_OF_ASC_NODE":"16.0718","APOAPSIS":"548.142","SEMIMAJOR_AXIS":"6925.253","BSTAR":"0.00287540000000","PERIAPSIS":"546.094","DECAY_DATE":null,"LAUNCH_DATE":"2021-05-15","FILE":"3855077","PERIOD":"95.590","MEAN_MOTION_DDOT":"0.0000000000000","SITE":"AFETR"},{"MEAN_MOTION_DOT":"0.00038794","OBJECT_NAME":"STARLINK-2233","MEAN_ANOMALY":"280.2047","ELEMENT_SET_NO":"999","TIME_SYSTEM":"UTC","RCS_SIZE":"LARGE","COUNTRY_CODE":"US","OBJECT_ID":"2021-041AC","MEAN_MOTION":"15.06422308","EPHEMERIS_TYPE":"0","REF_FRAME":"TEME","EPOCH":"2023-03-08T20:50:37.383072","OBJECT_TYPE":"PAYLOAD","NORAD_CAT_ID":"48579","MEAN_ELEMENT_THEORY":"SGP4","ECCENTRICITY":"0.00013760","ARG_OF_PERICENTER":"79.9097","INCLINATION":"53.0538","TLE_LINE1":"1 48579U 21041AC  23067.86848823  .00038794  00000-0  26074-2 0  9998","CLASSIFICATION_TYPE":"U","REV_AT_EPOCH":"9988","MEAN_MOTION_DDOT":"0.0000000000000","PERIOD":"95.591","DECAY_DATE":null,"LAUNCH_DATE":"2021-05-15","FILE":"3855077","SITE":"AFETR","TLE_LINE2":"2 48579  53.0538  15.4450 0001376  79.9097 280.2047 15.06422308 99884","CENTER_NAME":"EARTH","RA_OF_ASC_NODE":"15.4450","GP_ID":"227720998","APOAPSIS":"548.098","SEMIMAJOR_AXIS":"6925.280","BSTAR":"0.00260740000000","PERIAPSIS":"546.192"},{"RA_OF_ASC_NODE":"349.9929","GP_ID":"227697365","APOAPSIS":"547.785","SEMIMAJOR_AXIS":"6925.298","PERIAPSIS":"546.540","BSTAR":"0.00267970000000","CENTER_NAME":"EARTH","TLE_LINE2":"2 48580  53.0548 349.9929 0000899 105.4919 254.6169 15.06416647100703","SITE":"AFETR","DECAY_DATE":null,"LAUNCH_DATE":"2021-05-15","FILE":"3854987","PERIOD":"95.591","MEAN_MOTION_DDOT":"0.0000000000000","INCLINATION":"53.0548","TLE_LINE1":"1 48580U 21041AD  23067.96752436  .00039877  00000-0  26797-2 0  9990","REV_AT_EPOCH":"10070","CLASSIFICATION_TYPE":"U","ARG_OF_PERICENTER":"105.4919","ECCENTRICITY":"0.00008990","OBJECT_TYPE":"PAYLOAD","NORAD_CAT_ID":"48580","MEAN_ELEMENT_THEORY":"SGP4","EPOCH":"2023-03-08T23:13:14.104704","MEAN_MOTION":"15.06416647","EPHEMERIS_TYPE":"0","REF_FRAME":"TEME","COUNTRY_CODE":"US","OBJECT_ID":"2021-041AD","ELEMENT_SET_NO":"999","TIME_SYSTEM":"UTC","RCS_SIZE":"LARGE","MEAN_MOTION_DOT":"0.00039877","OBJECT_NAME":"STARLINK-2234","MEAN_ANOMALY":"254.6169"},{"FILE":"3855077","LAUNCH_DATE":"2021-05-15","DECAY_DATE":null,"MEAN_MOTION_DDOT":"0.0000000000000","PERIOD":"95.590","SITE":"AFETR","CENTER_NAME":"EARTH","TLE_LINE2":"2 48581  53.0554 343.4555 0000454 100.9161 259.1879 15.06436568100286","PERIAPSIS":"546.787","BSTAR":"0.00198310000000","SEMIMAJOR_AXIS":"6925.236","APOAPSIS":"547.416","GP_ID":"227719998","RA_OF_ASC_NODE":"343.4555","RCS_SIZE":"LARGE","TIME_SYSTEM":"UTC","ELEMENT_SET_NO":"999","MEAN_ANOMALY":"259.1879","OBJECT_NAME":"STARLINK-2235","MEAN_MOTION_DOT":"0.00029410","REF_FRAME":"TEME","EPHEMERIS_TYPE":"0","MEAN_MOTION":"15.06436568","OBJECT_ID":"2021-041AE","COUNTRY_CODE":"US","MEAN_ELEMENT_THEORY":"SGP4","NORAD_CAT_ID":"48581","OBJECT_TYPE":"PAYLOAD","EPOCH":"2023-03-08T04:46:35.097312","REV_AT_EPOCH":"10028","CLASSIFICATION_TYPE":"U","TLE_LINE1":"1 48581U 21041AE  23067.19901733  .00029410  00000-0  19831-2 0  9995","INCLINATION":"53.0554","ECCENTRICITY":"0.00004540","ARG_OF_PERICENTER":"100.9161"},{"ELEMENT_SET_NO":"999","TIME_SYSTEM":"UTC","RCS_SIZE":"LARGE","OBJECT_NAME":"STARLINK-2236","MEAN_MOTION_DOT":"0.00033615","MEAN_ANOMALY":"272.5041","MEAN_MOTION":"15.06399172","EPHEMERIS_TYPE":"0","REF_FRAME":"TEME","COUNTRY_CODE":"US","OBJECT_ID":"2021-041AF","OBJECT_TYPE":"PAYLOAD","NORAD_CAT_ID":"48582","MEAN_ELEMENT_THEORY":"SGP4","EPOCH":"2023-03-08T23:26:33.493920","INCLINATION":"53.0569","TLE_LINE1":"1 48582U 21041AF  23067.97677655  .00033615  00000-0  22649-2 0  9998","CLASSIFICATION_TYPE":"U","REV_AT_EPOCH":"10083","ECCENTRICITY":"0.00011520","ARG_OF_PERICENTER":"87.6080","DECAY_DATE":null,"LAUNCH_DATE":"2021-05-15","FILE":"3854994","MEAN_MOTION_DDOT":"0.0000000000000","PERIOD":"95.592","SITE":"AFETR","CENTER_NAME":"EARTH","TLE_LINE2":"2 48582  53.0569 340.1210 0001152  87.6080 272.5041 15.06399172100832","RA_OF_ASC_NODE":"340.1210","GP_ID":"227697437","APOAPSIS":"548.014","SEMIMAJOR_AXIS":"6925.351","PERIAPSIS":"546.418","BSTAR":"0.00226490000000"},{"SITE":"AFETR","DECAY_DATE":null,"LAUNCH_DATE":"2021-05-15","FILE":"3855077","PERIOD":"95.591","MEAN_MOTION_DDOT":"0.0000000000000","RA_OF_ASC_NODE":"25.5323","GP_ID":"227721499","APOAPSIS":"547.795","SEMIMAJOR_AXIS":"6925.295","BSTAR":"0.00078642000000","PERIAPSIS":"546.525","CENTER_NAME":"EARTH","TLE_LINE2":"2 48583  53.0557  25.5323 0000917  94.5422 265.5672 15.06417582 99749","MEAN_MOTION":"15.06417582","EPHEMERIS_TYPE":"0","REF_FRAME":"TEME","COUNTRY_CODE":"US","OBJECT_ID":"2021-041AG","ELEMENT_SET_NO":"999","TIME_SYSTEM":"UTC","RCS_SIZE":"LARGE","OBJECT_NAME":"STARLINK-2237","MEAN_MOTION_DOT":"0.00011457","MEAN_ANOMALY":"265.5672","INCLINATION":"53.0557","TLE_LINE1":"1 48583U 21041AG  23067.84912950  .00011457  00000-0  78642-3 0  9990","CLASSIFICATION_TYPE":"U","REV_AT_EPOCH":"9974","ARG_OF_PERICENTER":"94.5422","ECCENTRICITY":"0.00009170","OBJECT_TYPE":"PAYLOAD","NORAD_CAT_ID":"48583","MEAN_ELEMENT_THEORY":"SGP4","EPOCH":"2023-03-08T20:22:44.788800"},{"APOAPSIS":"548.475","RA_OF_ASC_NODE":"28.0264","GP_ID":"227721746","BSTAR":"0.00081832000000","PERIAPSIS":"545.907","SEMIMAJOR_AXIS":"6925.326","TLE_LINE2":"2 48584  53.0539  28.0264 0001854  95.2048 264.9152 15.06407344 99656","CENTER_NAME":"EARTH","SITE":"AFETR","MEAN_MOTION_DDOT":"0.0000000000000","PERIOD":"95.592","DECAY_DATE":null,"FILE":"3855077","LAUNCH_DATE":"2021-05-15","ARG_OF_PERICENTER":"95.2048","ECCENTRICITY":"0.00018540","TLE_LINE1":"1 48584U 21041AH  23067.29255753  .00011931  00000-0  81832-3 0  9993","INCLINATION":"53.0539","CLASSIFICATION_TYPE":"U","REV_AT_EPOCH":"9965","EPOCH":"2023-03-08T07:01:16.970592","OBJECT_TYPE":"PAYLOAD","MEAN_ELEMENT_THEORY":"SGP4","NORAD_CAT_ID":"48584","COUNTRY_CODE":"US","OBJECT_ID":"2021-041AH","MEAN_MOTION":"15.06407344","REF_FRAME":"TEME","EPHEMERIS_TYPE":"0","OBJECT_NAME":"STARLINK-2238","MEAN_MOTION_DOT":"0.00011931","MEAN_ANOMALY":"264.9152","ELEMENT_SET_NO":"999","RCS_SIZE":"LARGE","TIME_SYSTEM":"UTC"},{"OBJECT_NAME":"STARLINK-2240","MEAN_MOTION_DOT":"0.00025055","MEAN_ANOMALY":"272.4452","ELEMENT_SET_NO":"999","RCS_SIZE":"LARGE","TIME_SYSTEM":"UTC","COUNTRY_CODE":"US","OBJECT_ID":"2021-041AJ","MEAN_MOTION":"15.06403160","REF_FRAME":"TEME","EPHEMERIS_TYPE":"0","EPOCH":"2023-03-08T21:37:04.341216","OBJECT_TYPE":"PAYLOAD","MEAN_ELEMENT_THEORY":"SGP4","NORAD_CAT_ID":"48585","ARG_OF_PERICENTER":"87.6620","ECCENTRICITY":"0.00007250","TLE_LINE1":"1 48585U 21041AJ  23067.90074469  .00025055  00000-0  16948-2 0  9992","INCLINATION":"53.0546","REV_AT_EPOCH":"9974","CLASSIFICATION_TYPE":"U","MEAN_MOTION_DDOT":"0.0000000000000","PERIOD":"95.592","DECAY_DATE":null,"FILE":"3855077","LAUNCH_DATE":"2021-05-15","SITE":"AFETR","TLE_LINE2":"2 48585  53.0546  25.2974 0000725  87.6620 272.4452 15.06403160 99748","CENTER_NAME":"EARTH","APOAPSIS":"547.706","RA_OF_ASC_NODE":"25.2974","GP_ID":"227720499","PERIAPSIS":"546.702","BSTAR":"0.00169480000000","SEMIMAJOR_AXIS":"6925.339"},{"ARG_OF_PERICENTER":"84.0322","ECCENTRICITY":"0.00014100","TLE_LINE1":"1 48586U 21041AK  23067.95967594  .00070219  00000-0  46714-2 0  9994","INCLINATION":"53.0551","CLASSIFICATION_TYPE":"U","REV_AT_EPOCH":"10015","EPOCH":"2023-03-08T23:01:56.001216","OBJECT_TYPE":"PAYLOAD","MEAN_ELEMENT_THEORY":"SGP4","NORAD_CAT_ID":"48586","COUNTRY_CODE":"US","OBJECT_ID":"2021-041AK","MEAN_MOTION":"15.06518025","REF_FRAME":"TEME","EPHEMERIS_TYPE":"0","OBJECT_NAME":"STARLINK-2241","MEAN_MOTION_DOT":"0.00070219","MEAN_ANOMALY":"276.0828","ELEMENT_SET_NO":"999","RCS_SIZE":"LARGE","TIME_SYSTEM":"UTC","APOAPSIS":"547.828","GP_ID":"227698037","RA_OF_ASC_NODE":"25.0341","BSTAR":"0.00467140000000","PERIAPSIS":"545.875","SEMIMAJOR_AXIS":"6924.987","TLE_LINE2":"2 48586  53.0551  25.0341 0001410  84.0322 276.0828 15.06518025100155","CENTER_NAME":"EARTH","SITE":"AFETR","PERIOD":"95.585","MEAN_MOTION_DDOT":"0.0000000000000","DECAY_DATE":null,"FILE":"3855025","LAUNCH_DATE":"2021-05-15"},{"REF_FRAME":"TEME","EPHEMERIS_TYPE":"0","MEAN_MOTION":"15.06429958","OBJECT_ID":"2021-041AL","COUNTRY_CODE":"US","RCS_SIZE":"LARGE","TIME_SYSTEM":"UTC","ELEMENT_SET_NO":"999","MEAN_ANOMALY":"269.3375","OBJECT_NAME":"STARLINK-2242","MEAN_MOTION_DOT":"0.00042567","CLASSIFICATION_TYPE":"U","REV_AT_EPOCH":"9974","TLE_LINE1":"1 48587U 21041AL  23067.89705357  .00042567  00000-0  28571-2 0  9991","INCLINATION":"53.0550","ECCENTRICITY":"0.00016920","ARG_OF_PERICENTER":"90.7808","MEAN_ELEMENT_THEORY":"SGP4","NORAD_CAT_ID":"48587","OBJECT_TYPE":"PAYLOAD","EPOCH":"2023-03-08T21:31:45.428448","SITE":"AFETR","FILE":"3855077","LAUNCH_DATE":"2021-05-15","DECAY_DATE":null,"PERIOD":"95.590","MEAN_MOTION_DDOT":"0.0000000000000","BSTAR":"0.00285710000000","PERIAPSIS":"545.950","SEMIMAJOR_AXIS":"6925.257","APOAPSIS":"548.293","RA_OF_ASC_NODE":"25.3084","GP_ID":"227720999","CENTER_NAME":"EARTH","TLE_LINE2":"2 48587  53.0550  25.3084 0001692  90.7808 269.3375 15.06429958 99747"}];
